<?xml version='1.0' encoding='utf-8'?>
<kml xmlns='http://www.opengis.net/kml/2.2'
xmlns:gx='http://www.google.com/kml/ext/2.2'
xmlns:kml='http://www.opengis.net/kml/2.2'
xmlns:atom='http://www.w3.org/2005/Atom'>
<Document>
<name>crowded location</name>
<Style id='sh_ylw-pushpin'>
<IconStyle>
<scale>1.3</scale>
<Icon>
<href>http://maps.google.com/mapfiles/kml/pushpin/ylw-pushpin.png</href>
</Icon>
<hotSpot x='20' y='2' xunits='pixels' yunits='pixels'/>
</IconStyle>
<PolyStyle>
<color>ff00ff55</color>
</PolyStyle>
</Style>
<StyleMap id='msn_ylw-pushpin'>
<Pair>
<key>normal</key>
<styleUrl>#sn_ylw-pushpin</styleUrl>
</Pair>
<Pair>
<key>highlight</key>
<styleUrl>#sh_ylw-pushpin</styleUrl>
</Pair>
</StyleMap>
<Style id='sn_ylw-pushpin'>
<IconStyle>
<scale>1.1</scale>
<Icon>
<href>http://maps.google.com/mapfiles/kml/pushpin/ylw-pushpin.png</href>
</Icon>
<hotSpot x='20' y='2' xunits='pixels' yunits='pixels'/>
</IconStyle>
 <PolyStyle>
<color>ff00ff55</color>
</PolyStyle>
</Style>
<Placemark>
<name>LinearRing0</name>
<description>This is a polygon of crowded location</description>
<styleUrl>#msn_ylw-pushpin</styleUrl>
<Polygon>
<extrude>1</extrude>
<tessellate>1</tessellate>
<altitudeMode>clampToGround</altitudeMode>
<outerBoundaryIs>
<LinearRing>
<coordinates>
</coordinates>
</LinearRing>
</outerBoundaryIs>
</Polygon>
<Style>
<LineStyle>
<color>ff0000ff</color>
</LineStyle>
<PolyStyle>
<fill>1</fill>
</PolyStyle>
</Style>
</Placemark>
<Placemark>
<name>LinearRing1</name>
<description>This is a polygon of crowded location</description>
<styleUrl>#msn_ylw-pushpin</styleUrl>
<Polygon>
<extrude>1</extrude>
<tessellate>1</tessellate>
<altitudeMode>clampToGround</altitudeMode>
<outerBoundaryIs>
<LinearRing>
<coordinates>
</coordinates>
</LinearRing>
</outerBoundaryIs>
</Polygon>
<Style>
<LineStyle>
<color>ff0000ff</color>
</LineStyle>
<PolyStyle>
<fill>1</fill>
</PolyStyle>
</Style>
</Placemark>
<Placemark>
<name>LinearRing2</name>
<description>This is a polygon of crowded location</description>
<styleUrl>#msn_ylw-pushpin</styleUrl>
<Polygon>
<extrude>1</extrude>
<tessellate>1</tessellate>
<altitudeMode>clampToGround</altitudeMode>
<outerBoundaryIs>
<LinearRing>
<coordinates>
</coordinates>
</LinearRing>
</outerBoundaryIs>
</Polygon>
<Style>
<LineStyle>
<color>ff0000ff</color>
</LineStyle>
<PolyStyle>
<fill>1</fill>
</PolyStyle>
</Style>
</Placemark>
<Placemark>
<name>LinearRing3</name>
<description>This is a polygon of crowded location</description>
<styleUrl>#msn_ylw-pushpin</styleUrl>
<Polygon>
<extrude>1</extrude>
<tessellate>1</tessellate>
<altitudeMode>clampToGround</altitudeMode>
<outerBoundaryIs>
<LinearRing>
<coordinates>
</coordinates>
</LinearRing>
</outerBoundaryIs>
</Polygon>
<Style>
<LineStyle>
<color>ff0000ff</color>
</LineStyle>
<PolyStyle>
<fill>1</fill>
</PolyStyle>
</Style>
</Placemark>
<Placemark>
<name>LinearRing4</name>
<description>This is a polygon of crowded location</description>
<styleUrl>#msn_ylw-pushpin</styleUrl>
<Polygon>
<extrude>1</extrude>
<tessellate>1</tessellate>
<altitudeMode>clampToGround</altitudeMode>
<outerBoundaryIs>
<LinearRing>
<coordinates>
</coordinates>
</LinearRing>
</outerBoundaryIs>
</Polygon>
<Style>
<LineStyle>
<color>ff0000ff</color>
</LineStyle>
<PolyStyle>
<fill>1</fill>
</PolyStyle>
</Style>
</Placemark>
<Placemark>
<name>LinearRing5</name>
<description>This is a polygon of crowded location</description>
<styleUrl>#msn_ylw-pushpin</styleUrl>
<Polygon>
<extrude>1</extrude>
<tessellate>1</tessellate>
<altitudeMode>clampToGround</altitudeMode>
<outerBoundaryIs>
<LinearRing>
<coordinates>
</coordinates>
</LinearRing>
</outerBoundaryIs>
</Polygon>
<Style>
<LineStyle>
<color>ff0000ff</color>
</LineStyle>
<PolyStyle>
<fill>1</fill>
</PolyStyle>
</Style>
</Placemark>
<Placemark>
<name>LinearRing6</name>
<description>This is a polygon of crowded location</description>
<styleUrl>#msn_ylw-pushpin</styleUrl>
<Polygon>
<extrude>1</extrude>
<tessellate>1</tessellate>
<altitudeMode>clampToGround</altitudeMode>
<outerBoundaryIs>
<LinearRing>
<coordinates>
</coordinates>
</LinearRing>
</outerBoundaryIs>
</Polygon>
<Style>
<LineStyle>
<color>ff0000ff</color>
</LineStyle>
<PolyStyle>
<fill>1</fill>
</PolyStyle>
</Style>
</Placemark>
<Placemark>
<name>LinearRing7</name>
<description>This is a polygon of crowded location</description>
<styleUrl>#msn_ylw-pushpin</styleUrl>
<Polygon>
<extrude>1</extrude>
<tessellate>1</tessellate>
<altitudeMode>clampToGround</altitudeMode>
<outerBoundaryIs>
<LinearRing>
<coordinates>
</coordinates>
</LinearRing>
</outerBoundaryIs>
</Polygon>
<Style>
<LineStyle>
<color>ff0000ff</color>
</LineStyle>
<PolyStyle>
<fill>1</fill>
</PolyStyle>
</Style>
</Placemark>
<Placemark>
<name>LinearRing8</name>
<description>This is a polygon of crowded location</description>
<styleUrl>#msn_ylw-pushpin</styleUrl>
<Polygon>
<extrude>1</extrude>
<tessellate>1</tessellate>
<altitudeMode>clampToGround</altitudeMode>
<outerBoundaryIs>
<LinearRing>
<coordinates>
</coordinates>
</LinearRing>
</outerBoundaryIs>
</Polygon>
<Style>
<LineStyle>
<color>ff0000ff</color>
</LineStyle>
<PolyStyle>
<fill>1</fill>
</PolyStyle>
</Style>
</Placemark>
</Document>
</kml>
