<?xml version='1.0' encoding='utf-8'?>
<kml xmlns='http://www.opengis.net/kml/2.2'
xmlns:gx='http://www.google.com/kml/ext/2.2'
xmlns:kml='http://www.opengis.net/kml/2.2'
xmlns:atom='http://www.w3.org/2005/Atom'>
<Document>
<name>crowded location</name>
<Style id='sh_ylw-pushpin'>
<IconStyle>
<scale>1.3</scale>
<Icon>
<href>http://maps.google.com/mapfiles/kml/pushpin/ylw-pushpin.png</href>
</Icon>
<hotSpot x='20' y='2' xunits='pixels' yunits='pixels'/>
</IconStyle>
<PolyStyle>
<color>ff00ff55</color>
</PolyStyle>
</Style>
<StyleMap id='msn_ylw-pushpin'>
<Pair>
<key>normal</key>
<styleUrl>#sn_ylw-pushpin</styleUrl>
</Pair>
<Pair>
<key>highlight</key>
<styleUrl>#sh_ylw-pushpin</styleUrl>
</Pair>
</StyleMap>
<Style id='sn_ylw-pushpin'>
<IconStyle>
<scale>1.1</scale>
<Icon>
<href>http://maps.google.com/mapfiles/kml/pushpin/ylw-pushpin.png</href>
</Icon>
<hotSpot x='20' y='2' xunits='pixels' yunits='pixels'/>
</IconStyle>
 <PolyStyle>
<color>ff00ff55</color>
</PolyStyle>
</Style>
<Placemark>
<name>LinearRing0</name>
<description>This is a polygon of crowded location</description>
<styleUrl>#msn_ylw-pushpin</styleUrl>
<Polygon>
<extrude>1</extrude>
<tessellate>1</tessellate>
<altitudeMode>clampToGround</altitudeMode>
<outerBoundaryIs>
<LinearRing>
<coordinates>
0.0681561,-0.0138364,0 
0.0681621,-0.013835,0 
0.0681103,-0.0138365,0 
0.0681517,-0.0138375,0 
0.0681561,-0.0138364,0 
</coordinates>
</LinearRing>
</outerBoundaryIs>
</Polygon>
<Style>
<LineStyle>
<color>ff0000ff</color>
</LineStyle>
<PolyStyle>
<fill>1</fill>
</PolyStyle>
</Style>
</Placemark>
<Placemark>
<name>LinearRing1</name>
<description>This is a polygon of crowded location</description>
<styleUrl>#msn_ylw-pushpin</styleUrl>
<Polygon>
<extrude>1</extrude>
<tessellate>1</tessellate>
<altitudeMode>clampToGround</altitudeMode>
<outerBoundaryIs>
<LinearRing>
<coordinates>
0.046107,-0.0231925,0 
0.0465155,-0.0233768,0 
0.0468661,-0.0252366,0 
0.0471339,-0.0231964,0 
0.0478363,-0.0234191,0 
0.048228,-0.0253638,0 
0.0484233,-0.0232185,0 
0.0490099,-0.0238086,0 
0.0491155,-0.0234449,0 
0.0494967,-0.0250691,0 
0.0495774,-0.0235522,0 
0.0502712,-0.0232686,0 
0.0503484,-0.0237342,0 
0.0504652,-0.0233922,0 
0.0508304,-0.0252789,0 
0.0510908,-0.0236264,0 
0.0512212,-0.0250276,0 
0.051287,-0.0231709,0 
0.051645,-0.0231107,0 
0.0519856,-0.0252789,0 
0.052272,-0.0237379,0 
0.0523879,-0.0250276,0 
0.0524387,-0.0235933,0 
0.0527737,-0.0249039,0 
0.0530538,-0.0232202,0 
0.0532879,-0.0250276,0 
0.0533865,-0.0236161,0 
0.053666,-0.0252366,0 
0.0538098,-0.0234672,0 
0.054166,-0.0252366,0 
0.0542523,-0.0231456,0 
0.0543993,-0.0252366,0 
0.0544028,-0.0236562,0 
0.054688,-0.0249862,0 
0.0548615,-0.0235006,0 
0.0553279,-0.0253638,0 
0.055603,-0.0231494,0 
0.0557612,-0.0253638,0 
0.0557676,-0.0231669,0 
0.056066,-0.0252366,0 
0.0560706,-0.0231571,0 
0.0565966,-0.0250691,0 
0.0565698,-0.0231527,0 
0.0567278,-0.0253638,0 
0.0572367,-0.023155,0 
0.0573945,-0.0253638,0 
0.0574618,-0.0231557,0 
0.0575657,-0.0255789,0 
0.0575754,-0.023119,0 
0.0576636,-0.0252789,0 
0.0579081,-0.0233736,0 
0.0580945,-0.0253638,0 
0.0583731,-0.0236481,0 
0.058597,-0.0252789,0 
0.0587414,-0.0244167,0 
0.0589367,-0.0251526,0 
0.0589605,-0.0235678,0 
0.0593324,-0.0255789,0 
0.0593745,-0.0230999,0 
0.059497,-0.0252789,0 
0.0597308,-0.0233307,0 
0.06021,-0.023164,0 
0.0602637,-0.0252789,0 
0.0602762,-0.023141,0 
0.0605537,-0.0230444,0 
0.0606119,-0.0240347,0 
0.0606417,-0.0230138,0 
0.060797,-0.0252789,0 
0.0610101,-0.0247092,0 
0.0611991,-0.0255789,0 
0.0612097,-0.0228804,0 
0.0616522,-0.0252789,0 
0.0618346,-0.0230764,0 
0.0621856,-0.0252789,0 
0.0623613,-0.0235243,0 
0.0628878,-0.0250276,0 
0.0632966,-0.0234416,0 
0.0632607,-0.0203464,0 
0.0639214,-0.0249862,0 
0.0641609,-0.0238151,0 
0.0644403,-0.0249039,0 
0.0644808,-0.0213564,0 
0.0647545,-0.0250276,0 
0.0647604,-0.0212205,0 
0.0649547,-0.0249862,0 
0.0649679,-0.022503,0 
0.0654657,-0.0255789,0 
0.0658575,-0.0229828,0 
0.0662657,-0.0255789,0 
0.0665532,-0.0203023,0 
0.0668354,-0.0202927,0 
0.0672991,-0.0255789,0 
0.0673076,-0.0234248,0 
0.0676324,-0.0255789,0 
0.0678404,-0.0210785,0 
0.0681327,-0.0252366,0 
0.0681437,-0.0203307,0 
0.0688397,-0.0221623,0 
0.0691945,-0.0253638,0 
0.069858,-0.0198195,0 
0.0708104,-0.0213932,0 
0.070761,-0.0198671,0 
0.0715885,-0.01987,0 
0.0723376,-0.0230864,0 
0.0721299,-0.0198827,0 
0.0734287,-0.0199694,0 
0.0714225,-0.0139169,0 
0.0274461,-0.0138583,0 
0.0243359,-0.0232626,0 
0.0319269,-0.0231273,0 
0.032033,-0.0256223,0 
0.0322794,-0.0233015,0 
0.0324663,-0.0256223,0 
0.0325199,-0.0231934,0 
0.032633,-0.0256223,0 
0.0329025,-0.0233282,0 
0.033133,-0.0256223,0 
0.0332001,-0.0231519,0 
0.0334969,-0.0252789,0 
0.033684,-0.0232751,0 
0.0337997,-0.0256223,0 
0.034006,-0.0231924,0 
0.0341657,-0.0255789,0 
0.0341751,-0.0231955,0 
0.0347611,-0.0253638,0 
0.0348033,-0.0231968,0 
0.0351997,-0.0256223,0 
0.0352072,-0.0234924,0 
0.0353664,-0.0256223,0 
0.0355255,-0.0231829,0 
0.0357779,-0.0235505,0 
0.0357913,-0.0232083,0 
0.0360665,-0.0235141,0 
0.0363334,-0.0232699,0 
0.0364324,-0.0255789,0 
0.036507,-0.0232029,0 
0.0371443,-0.0231727,0 
0.0372522,-0.0252789,0 
0.0375977,-0.0232206,0 
0.0376998,-0.0256223,0 
0.0377067,-0.0232532,0 
0.0381956,-0.0231891,0 
0.0382453,-0.0240347,0 
0.0384772,-0.0231762,0 
0.0391434,-0.0232372,0 
0.0392214,-0.0249862,0 
0.0393488,-0.0232463,0 
0.0411666,-0.0235141,0 
0.0412622,-0.0232129,0 
0.0414992,-0.0255789,0 
0.0415085,-0.0232269,0 
0.0422447,-0.0235505,0 
0.0427071,-0.0231869,0 
0.0430325,-0.0255789,0 
0.0435206,-0.0231828,0 
0.0441179,-0.0232131,0 
0.0443213,-0.0250276,0 
0.0444604,-0.0231703,0 
0.0446659,-0.0255789,0 
0.0446751,-0.023243,0 
0.0451226,-0.0232283,0 
0.0455245,-0.0249039,0 
0.045556,-0.023214,0 
0.0459964,-0.023188,0 
0.0460999,-0.0256223,0 
0.046107,-0.0231925,0 
</coordinates>
</LinearRing>
</outerBoundaryIs>
</Polygon>
<Style>
<LineStyle>
<color>ff0000ff</color>
</LineStyle>
<PolyStyle>
<fill>1</fill>
</PolyStyle>
</Style>
</Placemark>
<Placemark>
<name>LinearRing2</name>
<description>This is a polygon of crowded location</description>
<styleUrl>#msn_ylw-pushpin</styleUrl>
<Polygon>
<extrude>1</extrude>
<tessellate>1</tessellate>
<altitudeMode>clampToGround</altitudeMode>
<outerBoundaryIs>
<LinearRing>
<coordinates>
0.054297,-0.0138941,0 
0.0538126,-0.0138934,0 
0.0544323,-0.0138942,0 
0.054297,-0.0138941,0 
</coordinates>
</LinearRing>
</outerBoundaryIs>
</Polygon>
<Style>
<LineStyle>
<color>ff0000ff</color>
</LineStyle>
<PolyStyle>
<fill>1</fill>
</PolyStyle>
</Style>
</Placemark>
<Placemark>
<name>LinearRing3</name>
<description>This is a polygon of crowded location</description>
<styleUrl>#msn_ylw-pushpin</styleUrl>
<Polygon>
<extrude>1</extrude>
<tessellate>1</tessellate>
<altitudeMode>clampToGround</altitudeMode>
<outerBoundaryIs>
<LinearRing>
<coordinates>
0.0560717,-0.0138964,0 
0.0557825,-0.013896,0 
0.0563428,-0.0138968,0 
0.0560717,-0.0138964,0 
</coordinates>
</LinearRing>
</outerBoundaryIs>
</Polygon>
<Style>
<LineStyle>
<color>ff0000ff</color>
</LineStyle>
<PolyStyle>
<fill>1</fill>
</PolyStyle>
</Style>
</Placemark>
<Placemark>
<name>LinearRing4</name>
<description>This is a polygon of crowded location</description>
<styleUrl>#msn_ylw-pushpin</styleUrl>
<Polygon>
<extrude>1</extrude>
<tessellate>1</tessellate>
<altitudeMode>clampToGround</altitudeMode>
<outerBoundaryIs>
<LinearRing>
<coordinates>
0.0644904,-0.0205154,0 
0.0644928,-0.0203043,0 
0.0644985,-0.0203054,0 
0.0645236,-0.0207678,0 
0.0644904,-0.0205154,0 
</coordinates>
</LinearRing>
</outerBoundaryIs>
</Polygon>
<Style>
<LineStyle>
<color>ff0000ff</color>
</LineStyle>
<PolyStyle>
<fill>1</fill>
</PolyStyle>
</Style>
</Placemark>
<Placemark>
<name>LinearRing5</name>
<description>This is a polygon of crowded location</description>
<styleUrl>#msn_ylw-pushpin</styleUrl>
<Polygon>
<extrude>1</extrude>
<tessellate>1</tessellate>
<altitudeMode>clampToGround</altitudeMode>
<outerBoundaryIs>
<LinearRing>
<coordinates>
0.0721192,-0.0212994,0 
0.0721179,-0.021214,0 
0.0722356,-0.0215129,0 
0.072237,-0.0215347,0 
0.0722376,-0.021544,0 
0.0722266,-0.0215885,0 
0.0721192,-0.0212994,0 
</coordinates>
</LinearRing>
</outerBoundaryIs>
</Polygon>
<Style>
<LineStyle>
<color>ff0000ff</color>
</LineStyle>
<PolyStyle>
<fill>1</fill>
</PolyStyle>
</Style>
</Placemark>
<Placemark>
<name>LinearRing6</name>
<description>This is a polygon of crowded location</description>
<styleUrl>#msn_ylw-pushpin</styleUrl>
<Polygon>
<extrude>1</extrude>
<tessellate>1</tessellate>
<altitudeMode>clampToGround</altitudeMode>
<outerBoundaryIs>
<LinearRing>
<coordinates>
0.043042,-0.0231594,0 
0.0430456,-0.0231583,0 
0.0430476,-0.0231577,0 
0.0430586,-0.0231954,0 
0.0430586,-0.0231954,0 
0.0430417,-0.0232456,0 
0.043042,-0.0231594,0 
</coordinates>
</LinearRing>
</outerBoundaryIs>
</Polygon>
<Style>
<LineStyle>
<color>ff0000ff</color>
</LineStyle>
<PolyStyle>
<fill>1</fill>
</PolyStyle>
</Style>
</Placemark>
<Placemark>
<name>LinearRing7</name>
<description>This is a polygon of crowded location</description>
<styleUrl>#msn_ylw-pushpin</styleUrl>
<Polygon>
<extrude>1</extrude>
<tessellate>1</tessellate>
<altitudeMode>clampToGround</altitudeMode>
<outerBoundaryIs>
<LinearRing>
<coordinates>
0.0527496,-0.02465,0 
0.0527475,-0.0245775,0 
0.0527482,-0.0245803,0 
0.0527641,-0.0247006,0 
0.0527496,-0.02465,0 
</coordinates>
</LinearRing>
</outerBoundaryIs>
</Polygon>
<Style>
<LineStyle>
<color>ff0000ff</color>
</LineStyle>
<PolyStyle>
<fill>1</fill>
</PolyStyle>
</Style>
</Placemark>
<Placemark>
<name>LinearRing8</name>
<description>This is a polygon of crowded location</description>
<styleUrl>#msn_ylw-pushpin</styleUrl>
<Polygon>
<extrude>1</extrude>
<tessellate>1</tessellate>
<altitudeMode>clampToGround</altitudeMode>
<outerBoundaryIs>
<LinearRing>
<coordinates>
0.062554,-0.0246247,0 
0.0625534,-0.0246597,0 
0.062564,-0.0247006,0 
0.062554,-0.0246247,0 
</coordinates>
</LinearRing>
</outerBoundaryIs>
</Polygon>
<Style>
<LineStyle>
<color>ff0000ff</color>
</LineStyle>
<PolyStyle>
<fill>1</fill>
</PolyStyle>
</Style>
</Placemark>
<Placemark>
<name>LinearRing9</name>
<description>This is a polygon of crowded location</description>
<styleUrl>#msn_ylw-pushpin</styleUrl>
<Polygon>
<extrude>1</extrude>
<tessellate>1</tessellate>
<altitudeMode>clampToGround</altitudeMode>
<outerBoundaryIs>
<LinearRing>
<coordinates>
0.0644201,-0.02466,0 
0.0644207,-0.0246249,0 
0.0644308,-0.0247006,0 
0.0644201,-0.02466,0 
</coordinates>
</LinearRing>
</outerBoundaryIs>
</Polygon>
<Style>
<LineStyle>
<color>ff0000ff</color>
</LineStyle>
<PolyStyle>
<fill>1</fill>
</PolyStyle>
</Style>
</Placemark>
<Placemark>
<name>LinearRing10</name>
<description>This is a polygon of crowded location</description>
<styleUrl>#msn_ylw-pushpin</styleUrl>
<Polygon>
<extrude>1</extrude>
<tessellate>1</tessellate>
<altitudeMode>clampToGround</altitudeMode>
<outerBoundaryIs>
<LinearRing>
<coordinates>
0.0536899,-0.0246437,0 
0.0536917,-0.0246569,0 
0.0536916,-0.0246588,0 
0.0536897,-0.0247006,0 
0.0536884,-0.0247313,0 
0.053686,-0.0247391,0 
0.0536899,-0.0246437,0 
</coordinates>
</LinearRing>
</outerBoundaryIs>
</Polygon>
<Style>
<LineStyle>
<color>ff0000ff</color>
</LineStyle>
<PolyStyle>
<fill>1</fill>
</PolyStyle>
</Style>
</Placemark>
<Placemark>
<name>LinearRing11</name>
<description>This is a polygon of crowded location</description>
<styleUrl>#msn_ylw-pushpin</styleUrl>
<Polygon>
<extrude>1</extrude>
<tessellate>1</tessellate>
<altitudeMode>clampToGround</altitudeMode>
<outerBoundaryIs>
<LinearRing>
<coordinates>
0.0694919,-0.0246588,0 
0.0694907,-0.0246738,0 
0.0694975,-0.0247006,0 
0.0694919,-0.0246588,0 
</coordinates>
</LinearRing>
</outerBoundaryIs>
</Polygon>
<Style>
<LineStyle>
<color>ff0000ff</color>
</LineStyle>
<PolyStyle>
<fill>1</fill>
</PolyStyle>
</Style>
</Placemark>
</Document>
</kml>
